{
  "type": "FeatureCollection",
  "features": [
    {
      "type": "Feature",
      "properties": {
        "norad_id": 66927,
        "name": "STARLINK-35943",
        "group": "last-30-days",
        "lat": 5.603395841657207,
        "lon": -20.077362871300235,
        "alt_km": 417.8804847900801,
        "timestamp": "2025-12-27T19:21:57.545352+00:00",
        "meta_object_name": "STARLINK-35943",
        "meta_object_id": "2025-286C",
        "meta_epoch": "2025-12-27T12:00:02.000160",
        "meta_mean_motion": 15.5094693,
        "meta_eccentricity": 0.0001168,
        "meta_inclination": 53.1594,
        "meta_ra_of_asc_node": 337.1742,
        "meta_arg_of_pericenter": 66.6943,
        "meta_mean_anomaly": 26.7051,
        "meta_ephemeris_type": 0,
        "meta_classification_type": "U",
        "meta_norad_cat_id": 66927,
        "meta_element_set_no": 999,
        "meta_rev_at_epoch": 436,
        "meta_bstar": -0.038844,
        "meta_mean_motion_dot": -0.02041151,
        "meta_mean_motion_ddot": 0,
        "tle_line1": "1 66927U 25286C   25361.50002315 -.02041151  00000+0 -38844-1 0  9999",
        "tle_line2": "2 66927  53.1594 337.1742 0001168  66.6943  26.7051 15.50946930  4362"
      },
      "geometry": {
        "type": "Point",
        "coordinates": [
          -20.077362871300235,
          5.603395841657207
        ]
      }
    },
    {
      "type": "Feature",
      "properties": {
        "norad_id": 66928,
        "name": "STARLINK-35944",
        "group": "last-30-days",
        "lat": 2.538754176951153,
        "lon": -22.383095310182394,
        "alt_km": 418.32564380910117,
        "timestamp": "2025-12-27T19:21:57.545366+00:00",
        "meta_object_name": "STARLINK-35944",
        "meta_object_id": "2025-286D",
        "meta_epoch": "2025-12-27T12:00:02.000160",
        "meta_mean_motion": 15.50948607,
        "meta_eccentricity": 0.0001216,
        "meta_inclination": 53.1593,
        "meta_ra_of_asc_node": 337.1818,
        "meta_arg_of_pericenter": 65.7424,
        "meta_mean_anomaly": 23.8217,
        "meta_ephemeris_type": 0,
        "meta_classification_type": "U",
        "meta_norad_cat_id": 66928,
        "meta_element_set_no": 999,
        "meta_rev_at_epoch": 436,
        "meta_bstar": -0.038874,
        "meta_mean_motion_dot": -0.02042703,
        "meta_mean_motion_ddot": 0,
        "tle_line1": "1 66928U 25286D   25361.50002315 -.02042703  00000+0 -38874-1 0  9997",
        "tle_line2": "2 66928  53.1593 337.1818 0001216  65.7424  23.8217 15.50948607  4369"
      },
      "geometry": {
        "type": "Point",
        "coordinates": [
          -22.383095310182394,
          2.538754176951153
        ]
      }
    },
    {
      "type": "Feature",
      "properties": {
        "norad_id": 66929,
        "name": "STARLINK-36169",
        "group": "last-30-days",
        "lat": 7.12535618708348,
        "lon": -18.92150439583925,
        "alt_km": 417.52344061306667,
        "timestamp": "2025-12-27T19:21:57.545377+00:00",
        "meta_object_name": "STARLINK-36169",
        "meta_object_id": "2025-286E",
        "meta_epoch": "2025-12-27T12:00:02.000160",
        "meta_mean_motion": 15.50923722,
        "meta_eccentricity": 0.0001264,
        "meta_inclination": 53.1593,
        "meta_ra_of_asc_node": 337.1706,
        "meta_arg_of_pericenter": 59.7572,
        "meta_mean_anomaly": 35.5623,
        "meta_ephemeris_type": 0,
        "meta_classification_type": "U",
        "meta_norad_cat_id": 66929,
        "meta_element_set_no": 999,
        "meta_rev_at_epoch": 436,
        "meta_bstar": -0.038165,
        "meta_mean_motion_dot": -0.0200786,
        "meta_mean_motion_ddot": 0,
        "tle_line1": "1 66929U 25286E   25361.50002315 -.02007860  00000+0 -38165-1 0  9996",
        "tle_line2": "2 66929  53.1593 337.1706 0001264  59.7572  35.5623 15.50923722  4368"
      },
      "geometry": {
        "type": "Point",
        "coordinates": [
          -18.92150439583925,
          7.12535618708348
        ]
      }
    },
    {
      "type": "Feature",
      "properties": {
        "norad_id": 66930,
        "name": "STARLINK-36206",
        "group": "last-30-days",
        "lat": 8.657072765664653,
        "lon": -17.74924381207394,
        "alt_km": 417.4635122074815,
        "timestamp": "2025-12-27T19:21:57.545386+00:00",
        "meta_object_name": "STARLINK-36206",
        "meta_object_id": "2025-286F",
        "meta_epoch": "2025-12-27T12:00:02.000160",
        "meta_mean_motion": 15.50943018,
        "meta_eccentricity": 0.0001164,
        "meta_inclination": 53.1595,
        "meta_ra_of_asc_node": 337.166,
        "meta_arg_of_pericenter": 73.1387,
        "meta_mean_anomaly": 24.095,
        "meta_ephemeris_type": 0,
        "meta_classification_type": "U",
        "meta_norad_cat_id": 66930,
        "meta_element_set_no": 999,
        "meta_rev_at_epoch": 436,
        "meta_bstar": -0.038727,
        "meta_mean_motion_dot": -0.02035437,
        "meta_mean_motion_ddot": 0,
        "tle_line1": "1 66930U 25286F   25361.50002315 -.02035437  00000+0 -38727-1 0  9993",
        "tle_line2": "2 66930  53.1595 337.1660 0001164  73.1387  24.0950 15.50943018  4360"
      },
      "geometry": {
        "type": "Point",
        "coordinates": [
          -17.74924381207394,
          8.657072765664653
        ]
      }
    },
    {
      "type": "Feature",
      "properties": {
        "norad_id": 66931,
        "name": "STARLINK-36130",
        "group": "last-30-days",
        "lat": 10.175490383284197,
        "lon": -16.57355755573822,
        "alt_km": 417.02993052169495,
        "timestamp": "2025-12-27T19:21:57.545396+00:00",
        "meta_object_name": "STARLINK-36130",
        "meta_object_id": "2025-286G",
        "meta_epoch": "2025-12-27T12:00:02.000160",
        "meta_mean_motion": 15.50927692,
        "meta_eccentricity": 0.0001317,
        "meta_inclination": 53.1595,
        "meta_ra_of_asc_node": 337.1627,
        "meta_arg_of_pericenter": 60.8922,
        "meta_mean_anomaly": 38.2626,
        "meta_ephemeris_type": 0,
        "meta_classification_type": "U",
        "meta_norad_cat_id": 66931,
        "meta_element_set_no": 999,
        "meta_rev_at_epoch": 436,
        "meta_bstar": -0.038362,
        "meta_mean_motion_dot": -0.02017417,
        "meta_mean_motion_ddot": 0,
        "tle_line1": "1 66931U 25286G   25361.50002315 -.02017417  00000+0 -38362-1 0  9997",
        "tle_line2": "2 66931  53.1595 337.1627 0001317  60.8922  38.2626 15.50927692  4369"
      },
      "geometry": {
        "type": "Point",
        "coordinates": [
          -16.57355755573822,
          10.175490383284197
        ]
      }
    },
    {
      "type": "Feature",
      "properties": {
        "norad_id": 66932,
        "name": "STARLINK-36177",
        "group": "last-30-days",
        "lat": 11.699219269597213,
        "lon": -15.380810878610003,
        "alt_km": 416.98475823510034,
        "timestamp": "2025-12-27T19:21:57.545405+00:00",
        "meta_object_name": "STARLINK-36177",
        "meta_object_id": "2025-286H",
        "meta_epoch": "2025-12-27T12:00:02.000160",
        "meta_mean_motion": 15.50948001,
        "meta_eccentricity": 0.0001188,
        "meta_inclination": 53.1596,
        "meta_ra_of_asc_node": 337.1577,
        "meta_arg_of_pericenter": 75.0291,
        "meta_mean_anomaly": 26.0385,
        "meta_ephemeris_type": 0,
        "meta_classification_type": "U",
        "meta_norad_cat_id": 66932,
        "meta_element_set_no": 999,
        "meta_rev_at_epoch": 436,
        "meta_bstar": -0.038926,
        "meta_mean_motion_dot": -0.02045115,
        "meta_mean_motion_ddot": 0,
        "tle_line1": "1 66932U 25286H   25361.50002315 -.02045115  00000+0 -38926-1 0  9990",
        "tle_line2": "2 66932  53.1596 337.1577 0001188  75.0291  26.0385 15.50948001  4362"
      },
      "geometry": {
        "type": "Point",
        "coordinates": [
          -15.380810878610003,
          11.699219269597213
        ]
      }
    },
    {
      "type": "Feature",
      "properties": {
        "norad_id": 66933,
        "name": "STARLINK-36157",
        "group": "last-30-days",
        "lat": 13.213486981956281,
        "lon": -14.177008828694534,
        "alt_km": 416.5692004746261,
        "timestamp": "2025-12-27T19:21:57.545414+00:00",
        "meta_object_name": "STARLINK-36157",
        "meta_object_id": "2025-286J",
        "meta_epoch": "2025-12-27T12:00:02.000160",
        "meta_mean_motion": 15.50954167,
        "meta_eccentricity": 0.0001335,
        "meta_inclination": 53.1595,
        "meta_ra_of_asc_node": 337.154,
        "meta_arg_of_pericenter": 65.3486,
        "meta_mean_anomaly": 37.6336,
        "meta_ephemeris_type": 0,
        "meta_classification_type": "U",
        "meta_norad_cat_id": 66933,
        "meta_element_set_no": 999,
        "meta_rev_at_epoch": 436,
        "meta_bstar": -0.039092,
        "meta_mean_motion_dot": -0.02053377,
        "meta_mean_motion_ddot": 0,
        "tle_line1": "1 66933U 25286J   25361.50002315 -.02053377  00000+0 -39092-1 0  9995",
        "tle_line2": "2 66933  53.1595 337.1540 0001335  65.3486  37.6336 15.50954167  4368"
      },
      "geometry": {
        "type": "Point",
        "coordinates": [
          -14.177008828694534,
          13.213486981956281
        ]
      }
    }
  ]
}